start=new Date('2021-11-29T00:00:00.000Z').valueOf();
sats=[{"ELEMENT_SET_NO":"999","GP_ID":"190687497","REV_AT_EPOCH":"2980","RCS_SIZE":"LARGE","BSTAR":"0.00011074000000","SITE":"AFETR","MEAN_MOTION_DDOT":"0.0000000000000","ARG_OF_PERICENTER":"65.7639","REF_FRAME":"TEME","PERIAPSIS":"545.890","NORAD_CAT_ID":"48559","OBJECT_TYPE":"PAYLOAD","CLASSIFICATION_TYPE":"U","MEAN_MOTION":"15.06400097","OBJECT_ID":"2021-041G","APOAPSIS":"548.537","PERIOD":"95.592","MEAN_ELEMENT_THEORY":"SGP4","CENTER_NAME":"EARTH","EPHEMERIS_TYPE":"0","OBJECT_NAME":"STARLINK-2167","EPOCH":"2021-11-28T22:25:14.772000","TIME_SYSTEM":"UTC","INCLINATION":"53.0521","TLE_LINE2":"2 48559  53.0521 302.6099 0001911  65.7639 294.3549 15.06400097 29803","SEMIMAJOR_AXIS":"6925.348","MEAN_ANOMALY":"294.3549","RA_OF_ASC_NODE":"302.6099","COUNTRY_CODE":"US","ECCENTRICITY":"0.00019110","MEAN_MOTION_DOT":"0.00001368","LAUNCH_DATE":"2021-05-15","TLE_LINE1":"1 48559U 21041G   21332.93419875  .00001368  00000-0  11074-3 0  9990","DECAY_DATE":null,"FILE":"3226391"},{"TLE_LINE2":"2 48560  53.0512 298.3621 0001638 141.1403 218.9721 15.46070018 30773","SEMIMAJOR_AXIS":"6806.373","OBJECT_NAME":"STARLINK-2173","EPOCH":"2021-11-28T22:22:49.579392","TIME_SYSTEM":"UTC","INCLINATION":"53.0512","CENTER_NAME":"EARTH","EPHEMERIS_TYPE":"0","FILE":"3226391","TLE_LINE1":"1 48560U 21041H   21332.93251828  .00346003  00000-0  66651-2 0  9992","DECAY_DATE":null,"COUNTRY_CODE":"US","ECCENTRICITY":"0.00016380","LAUNCH_DATE":"2021-05-15","MEAN_MOTION_DOT":"0.00346003","MEAN_ANOMALY":"218.9721","RA_OF_ASC_NODE":"298.3621","ARG_OF_PERICENTER":"141.1403","SITE":"AFETR","MEAN_MOTION_DDOT":"0.0000000000000","REF_FRAME":"TEME","PERIAPSIS":"427.123","RCS_SIZE":"MEDIUM","BSTAR":"0.00666510000000","ELEMENT_SET_NO":"999","GP_ID":"190687348","REV_AT_EPOCH":"3077","APOAPSIS":"429.353","MEAN_ELEMENT_THEORY":"SGP4","PERIOD":"93.139","CLASSIFICATION_TYPE":"U","MEAN_MOTION":"15.46070018","OBJECT_ID":"2021-041H","OBJECT_TYPE":"PAYLOAD","NORAD_CAT_ID":"48560"},{"MEAN_ANOMALY":"273.2607","RA_OF_ASC_NODE":"272.6873","MEAN_MOTION_DOT":"-0.00054881","LAUNCH_DATE":"2021-05-15","COUNTRY_CODE":"US","ECCENTRICITY":"0.00029480","DECAY_DATE":null,"TLE_LINE1":"1 48561U 21041J   21332.91668981 -.00054881  00000-0 -36904-2 0  9993","FILE":"3226391","EPHEMERIS_TYPE":"0","CENTER_NAME":"EARTH","TIME_SYSTEM":"UTC","INCLINATION":"53.0569","EPOCH":"2021-11-28T22:00:01.999584","OBJECT_NAME":"STARLINK-2186","SEMIMAJOR_AXIS":"6925.250","TLE_LINE2":"2 48561  53.0569 272.6873 0002948  56.8363 273.2607 15.06432159  3582","NORAD_CAT_ID":"48561","OBJECT_TYPE":"PAYLOAD","MEAN_MOTION":"15.06432159","OBJECT_ID":"2021-041J","CLASSIFICATION_TYPE":"U","PERIOD":"95.590","MEAN_ELEMENT_THEORY":"SGP4","APOAPSIS":"549.157","REV_AT_EPOCH":"358","ELEMENT_SET_NO":"999","GP_ID":"190687094","BSTAR":"-0.00369040000000","RCS_SIZE":"LARGE","PERIAPSIS":"545.073","SITE":"AFETR","MEAN_MOTION_DDOT":"0.0000000000000","ARG_OF_PERICENTER":"56.8363","REF_FRAME":"TEME"},{"ECCENTRICITY":"0.00022560","COUNTRY_CODE":"US","MEAN_MOTION_DOT":"-0.00000128","LAUNCH_DATE":"2021-05-15","RA_OF_ASC_NODE":"302.5792","MEAN_ANOMALY":"306.4798","FILE":"3226391","TLE_LINE1":"1 48562U 21041K   21332.94252272 -.00000128  00000-0  10318-4 0  9996","DECAY_DATE":null,"OBJECT_NAME":"STARLINK-2187","EPOCH":"2021-11-28T22:37:13.963008","INCLINATION":"53.0572","TIME_SYSTEM":"UTC","CENTER_NAME":"EARTH","EPHEMERIS_TYPE":"0","TLE_LINE2":"2 48562  53.0572 302.5792 0002256  53.6399 306.4798 15.06396823 29817","SEMIMAJOR_AXIS":"6925.358","OBJECT_TYPE":"PAYLOAD","NORAD_CAT_ID":"48562","APOAPSIS":"548.786","PERIOD":"95.592","MEAN_ELEMENT_THEORY":"SGP4","CLASSIFICATION_TYPE":"U","OBJECT_ID":"2021-041K","MEAN_MOTION":"15.06396823","GP_ID":"190687752","ELEMENT_SET_NO":"999","REV_AT_EPOCH":"2981","REF_FRAME":"TEME","SITE":"AFETR","ARG_OF_PERICENTER":"53.6399","MEAN_MOTION_DDOT":"0.0000000000000","PERIAPSIS":"545.661","RCS_SIZE":"LARGE","BSTAR":"0.00001031800000"},{"COUNTRY_CODE":"US","ECCENTRICITY":"0.00019640","LAUNCH_DATE":"2021-05-15","MEAN_MOTION_DOT":"0.00000262","RA_OF_ASC_NODE":"303.9907","MEAN_ANOMALY":"301.3603","FILE":"3226391","TLE_LINE1":"1 48563U 21041L   21332.62921552  .00000262  00000-0  36484-4 0  9996","DECAY_DATE":null,"OBJECT_NAME":"STARLINK-2188","EPOCH":"2021-11-28T15:06:04.220928","INCLINATION":"53.0554","TIME_SYSTEM":"UTC","CENTER_NAME":"EARTH","EPHEMERIS_TYPE":"0","TLE_LINE2":"2 48563  53.0554 303.9907 0001964  58.7578 301.3603 15.06394108 29768","SEMIMAJOR_AXIS":"6925.367","OBJECT_TYPE":"PAYLOAD","NORAD_CAT_ID":"48563","APOAPSIS":"548.592","PERIOD":"95.593","MEAN_ELEMENT_THEORY":"SGP4","CLASSIFICATION_TYPE":"U","OBJECT_ID":"2021-041L","MEAN_MOTION":"15.06394108","GP_ID":"190687222","ELEMENT_SET_NO":"999","REV_AT_EPOCH":"2976","REF_FRAME":"TEME","SITE":"AFETR","ARG_OF_PERICENTER":"58.7578","MEAN_MOTION_DDOT":"0.0000000000000","PERIAPSIS":"545.871","RCS_SIZE":"LARGE","BSTAR":"0.00003648400000"},{"OBJECT_ID":"2021-041M","MEAN_MOTION":"15.06400690","CLASSIFICATION_TYPE":"U","PERIOD":"95.592","MEAN_ELEMENT_THEORY":"SGP4","APOAPSIS":"548.520","NORAD_CAT_ID":"48564","OBJECT_TYPE":"PAYLOAD","BSTAR":"0.00000837580000","RCS_SIZE":"LARGE","PERIAPSIS":"545.903","REF_FRAME":"TEME","SITE":"AFETR","MEAN_MOTION_DDOT":"0.0000000000000","ARG_OF_PERICENTER":"54.3096","REV_AT_EPOCH":"2981","GP_ID":"190687623","ELEMENT_SET_NO":"999","DECAY_DATE":null,"TLE_LINE1":"1 48564U 21041M   21332.95357438 -.00000157  00000-0  83758-5 0  9990","FILE":"3226391","RA_OF_ASC_NODE":"302.5306","MEAN_ANOMALY":"305.8069","LAUNCH_DATE":"2021-05-15","MEAN_MOTION_DOT":"-0.00000157","COUNTRY_CODE":"US","ECCENTRICITY":"0.00018890","SEMIMAJOR_AXIS":"6925.346","TLE_LINE2":"2 48564  53.0567 302.5306 0001889  54.3096 305.8069 15.06400690 29819","EPHEMERIS_TYPE":"0","CENTER_NAME":"EARTH","INCLINATION":"53.0567","TIME_SYSTEM":"UTC","EPOCH":"2021-11-28T22:53:08.826432","OBJECT_NAME":"STARLINK-2190"},{"TLE_LINE2":"2 48565  53.0562 302.5496 0001664  56.0654 304.0493 15.06396084 29818","SEMIMAJOR_AXIS":"6925.361","OBJECT_NAME":"STARLINK-2191","EPOCH":"2021-11-28T22:47:50.623008","TIME_SYSTEM":"UTC","INCLINATION":"53.0562","CENTER_NAME":"EARTH","EPHEMERIS_TYPE":"0","FILE":"3226391","TLE_LINE1":"1 48565U 21041N   21332.94989147  .00000299  00000-0  38981-4 0  9991","DECAY_DATE":null,"COUNTRY_CODE":"US","ECCENTRICITY":"0.00016640","MEAN_MOTION_DOT":"0.00000299","LAUNCH_DATE":"2021-05-15","MEAN_ANOMALY":"304.0493","RA_OF_ASC_NODE":"302.5496","SITE":"AFETR","MEAN_MOTION_DDOT":"0.0000000000000","ARG_OF_PERICENTER":"56.0654","REF_FRAME":"TEME","PERIAPSIS":"546.073","RCS_SIZE":"LARGE","BSTAR":"0.00003898100000","ELEMENT_SET_NO":"999","GP_ID":"190687370","REV_AT_EPOCH":"2981","APOAPSIS":"548.378","PERIOD":"95.592","MEAN_ELEMENT_THEORY":"SGP4","CLASSIFICATION_TYPE":"U","MEAN_MOTION":"15.06396084","OBJECT_ID":"2021-041N","OBJECT_TYPE":"PAYLOAD","NORAD_CAT_ID":"48565"},{"OBJECT_TYPE":"PAYLOAD","NORAD_CAT_ID":"48566","PERIOD":"95.593","MEAN_ELEMENT_THEORY":"SGP4","APOAPSIS":"548.440","MEAN_MOTION":"15.06388378","OBJECT_ID":"2021-041P","CLASSIFICATION_TYPE":"U","REV_AT_EPOCH":"2962","ELEMENT_SET_NO":"999","GP_ID":"190687987","PERIAPSIS":"546.058","SITE":"AFETR","MEAN_MOTION_DDOT":"0.0000000000000","ARG_OF_PERICENTER":"57.5390","REF_FRAME":"TEME","BSTAR":"0.00000553100000","RCS_SIZE":"LARGE","LAUNCH_DATE":"2021-05-15","MEAN_MOTION_DOT":"-0.00000199","ECCENTRICITY":"0.00017200","COUNTRY_CODE":"US","MEAN_ANOMALY":"302.5766","RA_OF_ASC_NODE":"313.9232","FILE":"3226391","DECAY_DATE":null,"TLE_LINE1":"1 48566U 21041P   21332.64209360 -.00000199  00000-0  55310-5 0  9997","TIME_SYSTEM":"UTC","INCLINATION":"53.0563","EPOCH":"2021-11-28T15:24:36.887040","OBJECT_NAME":"STARLINK-2214","EPHEMERIS_TYPE":"0","CENTER_NAME":"EARTH","SEMIMAJOR_AXIS":"6925.384","TLE_LINE2":"2 48566  53.0563 313.9232 0001720  57.5390 302.5766 15.06388378 29622"},{"REF_FRAME":"TEME","MEAN_MOTION_DDOT":"0.0000000000000","SITE":"AFETR","ARG_OF_PERICENTER":"58.3122","PERIAPSIS":"546.020","RCS_SIZE":"LARGE","BSTAR":"-0.00004452200000","GP_ID":"190687498","ELEMENT_SET_NO":"999","REV_AT_EPOCH":"2962","APOAPSIS":"548.410","MEAN_ELEMENT_THEORY":"SGP4","PERIOD":"95.592","CLASSIFICATION_TYPE":"U","OBJECT_ID":"2021-041Q","MEAN_MOTION":"15.06399499","OBJECT_TYPE":"PAYLOAD","NORAD_CAT_ID":"48567","TLE_LINE2":"2 48567  53.0557 313.8619 0001726  58.3122 301.8036 15.06399499 29620","SEMIMAJOR_AXIS":"6925.350","EPOCH":"2021-11-28T15:41:54.316032","OBJECT_NAME":"STARLINK-2215","INCLINATION":"53.0557","TIME_SYSTEM":"UTC","CENTER_NAME":"EARTH","EPHEMERIS_TYPE":"0","FILE":"3226391","TLE_LINE1":"1 48567U 21041Q   21332.65410088 -.00000945  00000-0 -44522-4 0  9992","DECAY_DATE":null,"COUNTRY_CODE":"US","ECCENTRICITY":"0.00017260","MEAN_MOTION_DOT":"-0.00000945","LAUNCH_DATE":"2021-05-15","RA_OF_ASC_NODE":"313.8619","MEAN_ANOMALY":"301.8036"},{"PERIOD":"95.592","MEAN_ELEMENT_THEORY":"SGP4","APOAPSIS":"548.513","MEAN_MOTION":"15.06401775","OBJECT_ID":"2021-041R","CLASSIFICATION_TYPE":"U","OBJECT_TYPE":"PAYLOAD","NORAD_CAT_ID":"48568","PERIAPSIS":"545.903","SITE":"AFETR","MEAN_MOTION_DDOT":"0.0000000000000","ARG_OF_PERICENTER":"66.0990","REF_FRAME":"TEME","BSTAR":"0.00010337000000","RCS_SIZE":"MEDIUM","REV_AT_EPOCH":"2980","ELEMENT_SET_NO":"999","GP_ID":"190687349","FILE":"3226391","DECAY_DATE":null,"TLE_LINE1":"1 48568U 21041R   21332.93145422  .00001258  00000-0  10337-3 0  9993","MEAN_MOTION_DOT":"0.00001258","LAUNCH_DATE":"2021-05-15","COUNTRY_CODE":"US","ECCENTRICITY":"0.00018840","MEAN_ANOMALY":"294.0197","RA_OF_ASC_NODE":"302.6184","SEMIMAJOR_AXIS":"6925.343","TLE_LINE2":"2 48568  53.0529 302.6184 0001884  66.0990 294.0197 15.06401775 29809","TIME_SYSTEM":"UTC","INCLINATION":"53.0529","OBJECT_NAME":"STARLINK-2217","EPOCH":"2021-11-28T22:21:17.644608","EPHEMERIS_TYPE":"0","CENTER_NAME":"EARTH"}];
